NORAD_CAT_ID,OBJECT_NAME,OBJECT_TYPE,EPOCH,MEAN_MOTION,ECCENTRICITY,INCLINATION,RA_OF_ASC_NODE,ARG_OF_PERICENTER,MEAN_ANOMALY,BSTAR,MEAN_MOTION_DOT,MEAN_MOTION_DDOT,TLE_LINE0,TLE_LINE1,TLE_LINE2,SEMIMAJOR_AXIS,PERIOD,APOGEE,PERIGEE,DECAYED
53426.0,STARLINK-4558,PAYLOAD,2023-10-07 12:44:15,15.08838792,0.0001272,53.2159,113.418,84.0041,276.1096,0.00022224,3.251e-05,0.0,0 STARLINK-4558,1 53426U 22097AQ  23280.53073490  .00003251  00000-0  22224-3 0  9992,2 53426  53.2159 113.4180 0001272  84.0041 276.1096 15.08838792 65300,6917.884,95.438,540.629,538.869,0.0
53426.0,STARLINK-4558,PAYLOAD,2023-10-07 20:41:10,15.08846489,0.0001235,53.2153,111.9312,85.2994,274.814,0.00040896,6.228e-05,0.0,0 STARLINK-4558,1 53426U 22097AQ  23280.86193251  .00006228  00000-0  40896-3 0  9998,2 53426  53.2153 111.9312 0001235  85.2994 274.8140 15.08846489 64871,6917.861,95.437,540.58,538.871,0.0
53426.0,STARLINK-4558,PAYLOAD,2023-10-08 06:13:29,15.08844764,0.0001204,53.2149,110.1472,86.4392,273.6738,0.00034842,5.262e-05,0.0,0 STARLINK-4558,1 53426U 22097AQ  23281.25937279  .00005262  00000-0  34842-3 0  9999,2 53426  53.2149 110.1472 0001204  86.4392 273.6738 15.08844764 65410,6917.866,95.437,540.564,538.898,0.0
53426.0,STARLINK-4558,PAYLOAD,2023-10-08 18:56:34,15.08849251,0.0001278,53.2153,107.7679,84.938,275.1758,0.00032189,4.84e-05,0.0,0 STARLINK-4558,1 53426U 22097AQ  23281.78929132  .00004840  00000-0  32189-3 0  9999,2 53426  53.2153 107.7679 0001278  84.9380 275.1758 15.08849251 65018,6917.852,95.437,540.601,538.833,0.0
53426.0,STARLINK-4558,PAYLOAD,2023-10-09 12:25:49,15.08845275,0.0001353,53.216,104.4981,86.5617,273.553,0.00019771,2.86e-05,0.0,0 STARLINK-4558,1 53426U 22097AQ  23282.51793133  .00002860  00000-0  19771-3 0  9993,2 53426  53.2160 104.4981 0001353  86.5617 273.5530 15.08845275 65608,6917.864,95.437,540.665,538.793,0.0
53426.0,STARLINK-4558,PAYLOAD,2023-10-09 18:47:21,15.08847594,0.0001328,53.216,103.3081,90.1561,269.9583,0.00021897,3.199e-05,0.0,0 STARLINK-4558,1 53426U 22097AQ  23282.78289012  .00003199  00000-0  21897-3 0  9996,2 53426  53.2160 103.3081 0001328  90.1561 269.9583 15.08847594 65162,6917.857,95.437,540.641,538.803,0.0
53426.0,STARLINK-4558,PAYLOAD,2023-10-10 12:16:36,15.08845011,0.0001337,53.2176,100.037,88.0084,272.1061,0.0001377,1.905e-05,0.0,0 STARLINK-4558,1 53426U 22097AQ  23283.51152922  .00001905  00000-0  13770-3 0  9991,2 53426  53.2176 100.0370 0001337  88.0084 272.1061 15.08845011 65754,6917.865,95.437,540.655,538.805,0.0
53426.0,STARLINK-4558,PAYLOAD,2023-10-10 18:38:08,15.08851595,0.0001273,53.2165,98.847,92.5744,267.5394,0.00020029,2.902e-05,0.0,0 STARLINK-4558,1 53426U 22097AQ  23283.77648517  .00002902  00000-0  20029-3 0  9992,2 53426  53.2165  98.8470 0001273  92.5744 267.5394 15.08851595 65794,6917.845,95.437,540.591,538.829,0.0
53426.0,STARLINK-4558,PAYLOAD,2023-10-11 04:10:27,15.08849238,0.0001139,53.2157,97.0632,90.6373,269.4749,0.00014384,2.003e-05,0.0,0 STARLINK-4558,1 53426U 22097AQ  23284.17392409  .00002003  00000-0  14384-3 0  9992,2 53426  53.2157  97.0632 0001139  90.6373 269.4749 15.08849238 65374,6917.852,95.437,540.505,538.929,0.0
53426.0,STARLINK-4558,PAYLOAD,2023-10-11 12:07:23,15.0884034,0.0001784,53.2169,95.5776,96.1781,263.9414,2.1565e-05,5.5e-07,0.0,0 STARLINK-4558,1 53426U 22097AQ  23284.50512910  .00000055  00000-0  21565-4 0  9995,2 53426  53.2169  95.5776 0001784  96.1781 263.9414 15.08840340 65428,6917.879,95.438,540.978,538.51,0.0
53426.0,STARLINK-4558,PAYLOAD,2023-10-12 11:58:10,15.08836485,0.0001033,53.2157,91.1133,81.2484,278.8625,-3.5906e-05,-8.59e-06,0.0,0 STARLINK-4558,1 53426U 22097AQ  23285.49873114 -.00000859  00000-0 -35906-4 0  9998,2 53426  53.2157  91.1133 0001033  81.2484 278.8625 15.08836485 66050,6917.891,95.438,540.471,539.042,0.0
53426.0,STARLINK-4558,PAYLOAD,2023-10-12 18:19:42,15.08845974,0.0001394,53.2168,89.9277,98.2849,261.8301,0.00013611,1.879e-05,0.0,0 STARLINK-4558,1 53426U 22097AQ  23285.76368714  .00001879  00000-0  13611-3 0  9992,2 53426  53.2168  89.9277 0001394  98.2849 261.8301 15.08845974 65616,6917.862,95.437,540.691,538.763,0.0
53426.0,STARLINK-4558,PAYLOAD,2023-10-12 21:30:28,15.0885231,0.0001235,53.2163,89.3299,90.6036,269.5098,0.00020645,3e-05,0.0,0 STARLINK-4558,1 53426U 22097AQ  23285.89616311  .00003000  00000-0  20645-3 0  9998,2 53426  53.2163  89.3299 0001235  90.6036 269.5098 15.08852310 66113,6917.843,95.437,540.562,538.853,0.0
53426.0,STARLINK-4558,PAYLOAD,2023-10-13 03:52:01,15.08839807,0.0001588,53.2164,88.1398,80.5043,279.6129,4.813e-05,4.78e-06,0.0,0 STARLINK-4558,1 53426U 22097AQ  23286.16113040  .00000478  00000-0  48130-4 0  9996,2 53426  53.2164  88.1398 0001588  80.5043 279.6129 15.08839807 65671,6917.881,95.438,540.845,538.647,0.0
53426.0,STARLINK-4558,PAYLOAD,2023-10-13 14:59:44,15.08831301,0.000144,53.2158,86.0606,90.6745,269.4412,3.8745e-05,3.29e-06,0.0,0 STARLINK-4558,1 53426U 22097AQ  23286.62481651  .00000329  00000-0  38745-4 0  9999,2 53426  53.2158  86.0606 0001440  90.6745 269.4412 15.08831301 66226,6917.907,95.438,540.768,538.776,0.0
53426.0,STARLINK-4558,PAYLOAD,2023-10-13 19:45:53,15.08838617,0.0001616,53.215,85.1664,76.9087,283.2086,8.5274e-05,1.069e-05,0.0,0 STARLINK-4558,1 53426U 22097AQ  23286.82353405  .00001069  00000-0  85274-4 0  9997,2 53426  53.2150  85.1664 0001616  76.9087 283.2086 15.08838617 66254,6917.885,95.438,540.868,538.632,0.0
53426.0,STARLINK-4558,PAYLOAD,2023-10-14 10:04:21,15.08838068,0.0001368,53.2163,82.4912,85.0325,275.0824,6.5922e-05,7.61e-06,0.0,0 STARLINK-4558,1 53426U 22097AQ  23287.41969491  .00000761  00000-0  65922-4 0  9997,2 53426  53.2163  82.4912 0001368  85.0325 275.0824 15.08838068 65869,6917.886,95.438,540.698,538.805,0.0
53426.0,STARLINK-4558,PAYLOAD,2023-10-14 14:50:30,15.08840809,0.0001255,53.2157,81.5989,102.2602,257.8531,0.00011149,1.487e-05,0.0,0 STARLINK-4558,1 53426U 22097AQ  23287.61841249  .00001487  00000-0  11149-3 0  9996,2 53426  53.2157  81.5989 0001255 102.2602 257.8531 15.08840809 66377,6917.878,95.438,540.611,538.875,0.0
53426.0,STARLINK-4558,PAYLOAD,2023-10-15 09:55:09,15.08823747,0.0001388,53.2161,78.0321,86.4597,273.6553,0.00059172,9.138e-05,0.0,0 STARLINK-4558,1 53426U 22097AQ  23288.41330759  .00009138  00000-0  59172-3 0  9993,2 53426  53.2161  78.0321 0001388  86.4597 273.6553 15.08823747 66019,6917.93,95.439,540.755,538.835,0.0
53426.0,STARLINK-4558,PAYLOAD,2023-10-15 14:41:18,15.08835423,0.0001263,53.2165,77.1399,76.4265,283.6868,0.00013301,1.829e-05,0.0,0 STARLINK-4558,1 53426U 22097AQ  23288.61201877  .00001829  00000-0  13301-3 0  9996,2 53426  53.2165  77.1399 0001263  76.4265 283.6868 15.08835423 66521,6917.894,95.438,540.633,538.886,0.0
53426.0,STARLINK-4558,PAYLOAD,2023-10-15 16:16:41,15.08836938,0.0001237,53.2162,76.8422,84.8267,275.2866,0.00012676,1.73e-05,0.0,0 STARLINK-4558,1 53426U 22097AQ  23288.67825773  .00001730  00000-0  12676-3 0  9994,2 53426  53.2162  76.8422 0001237  84.8267 275.2866 15.08836938 66052,6917.89,95.438,540.61,538.899,0.0
53426.0,STARLINK-4558,PAYLOAD,2023-10-16 09:45:57,15.0882903,0.0001849,53.2175,73.5718,79.795,280.3251,-1.3439e-05,-5.02e-06,0.0,0 STARLINK-4558,1 53426U 22097AQ  23289.40691178 -.00000502  00000-0 -13439-4 0  9993,2 53426  53.2175  73.5718 0001849  79.7950 280.3251 15.08829030 66161,6917.914,95.438,541.058,538.5,0.0
53426.0,STARLINK-4558,PAYLOAD,2023-10-16 14:32:07,15.08819418,0.0001362,53.2174,72.6796,79.4185,280.6961,-9.6995e-05,-1.83e-05,0.0,0 STARLINK-4558,1 53426U 22097AQ  23289.60564044 -.00001830  00000-0 -96995-4 0  9999,2 53426  53.2174  72.6796 0001362  79.4185 280.6961 15.08819418 66679,6917.943,95.439,540.751,538.866,0.0
53426.0,STARLINK-4558,PAYLOAD,2023-10-16 16:07:30,15.08818894,0.0001269,53.2175,72.3825,78.6647,281.4488,-9.9309e-05,-1.867e-05,0.0,0 STARLINK-4558,1 53426U 22097AQ  23289.67188138 -.00001867  00000-0 -99309-4 0  9994,2 53426  53.2175  72.3825 0001269  78.6647 281.4488 15.08818894 66209,6917.945,95.439,540.688,538.932,0.0
53426.0,STARLINK-4558,PAYLOAD,2023-10-17 09:36:44,15.08837269,0.000139,53.2198,69.1091,98.6676,261.4474,5.8565e-05,6.44e-06,0.0,0 STARLINK-4558,1 53426U 22097AQ  23290.40051186  .00000644  00000-0  58565-4 0  9998,2 53426  53.2198  69.1091 0001390  98.6676 261.4474 15.08837269 66314,6917.889,95.438,540.715,538.792,0.0
53426.0,STARLINK-4558,PAYLOAD,2023-10-17 15:58:16,15.08842764,0.0001343,53.2179,67.9241,72.259,287.8548,0.00021899,3.199e-05,0.0,0 STARLINK-4558,1 53426U 22097AQ  23290.66546723  .00003199  00000-0  21899-3 0  9999,2 53426  53.2179  67.9241 0001343  72.2590 287.8548 15.08842764 66834,6917.872,95.437,540.666,538.808,0.0
53426.0,STARLINK-4558,PAYLOAD,2023-10-18 12:38:17,15.0884363,0.0001407,53.2191,64.0574,70.9137,289.2008,0.00042112,6.421e-05,0.0,0 STARLINK-4558,1 53426U 22097AQ  23291.52658620  .00006421  00000-0  42112-3 0  9997,2 53426  53.2191  64.0574 0001407  70.9137 289.2008 15.08843630 66489,6917.869,95.437,540.708,538.761,0.0
53426.0,STARLINK-4558,PAYLOAD,2023-10-18 15:49:03,15.08854717,0.0001342,53.2174,63.4608,66.4347,293.6786,0.00052207,8.034e-05,0.0,0 STARLINK-4558,1 53426U 22097AQ  23291.65906593  .00008034  00000-0  52207-3 0  9994,2 53426  53.2174  63.4608 0001342  66.4347 293.6786 15.08854717 66987,6917.835,95.437,540.629,538.772,0.0
53426.0,STARLINK-4558,PAYLOAD,2023-10-19 12:29:03,15.08855941,0.0001465,53.218,59.5946,66.9686,293.1461,5.5378e-05,5.94e-06,0.0,0 STARLINK-4558,1 53426U 22097AQ  23292.52017764  .00000594  00000-0  55378-4 0  9990,2 53426  53.2180  59.5946 0001465  66.9686 293.1461 15.08855941 67113,6917.832,95.437,540.71,538.683,0.0
53426.0,STARLINK-4558,PAYLOAD,2023-10-19 18:50:35,15.08866531,0.0001417,53.2174,58.4049,98.4937,261.6215,0.00019922,2.886e-05,0.0,0 STARLINK-4558,1 53426U 22097AQ  23292.78512812  .00002886  00000-0  19922-3 0  9992,2 53426  53.2174  58.4049 0001417  98.4937 261.6215 15.08866531 66678,6917.799,95.436,540.645,538.684,0.0
